SL-8 R/B                
1 21088U 91006B   26077.00015462  .00000080  00000+0  65424-4 0  9997
2 21088  82.9459 163.8679 0022572  15.6453 157.5489 13.77495370765216
OKEAN-3                 
1 21397U 91039A   26077.12375857  .00002114  00000+0  14740-3 0  9990
2 21397  82.5197 328.6740 0013079 305.7179  54.2830 15.04864744866306
COSMOS 2151             
1 21422U 91042A   26077.22131862  .00001992  00000+0  15726-3 0  9998
2 21422  82.4931  75.4435 0013439  37.5128 322.7031 15.00140618864477
SL-14 R/B               
1 21423U 91042B   26076.86081624  .00000437  00000+0  52322-4 0  9995
2 21423  82.4938 212.5205 0016288 210.0281 150.0001 14.81838107854289
ERS-1                   
1 21574U 91050A   26077.31668140  .00000274  00000+0  10220-3 0  9995
2 21574  98.7875  95.7680 0032100 174.7549 185.3980 14.39455853816975
ARIANE 40 R/B           
1 21610U 91050F   26077.13907222  .00000287  00000+0  98487-4 0  9999
2 21610  98.1994 129.0578 0004090  62.7702 297.3905 14.42899860820210
INTERCOSMOS 25          
1 21819U 91086A   26077.07789738  .00001553  00000+0  29697-3 0  9995
2 21819  82.6039 304.9385 1486826  98.8616 278.3154 12.12029771497705
SL-8 R/B                
1 21876U 92008B   26077.02200571  .00000003  00000+0 -12759-4 0  9993
2 21876  82.9222 261.5781 0035830 110.7617   2.1386 13.75969659710562
SL-8 R/B                
1 21938U 92020B   26076.93438887  .00000056  00000+0  42892-4 0  9996
2 21938  82.9323 147.6408 0027530 274.6975 258.4512 13.75550102702262
USA 81                  
1 21949U 92023A   26077.11158142  .00000182  00000+0  59841-4 0  9997
2 21949  85.0068 126.5820 0002228  71.3316 288.8118 14.32370760 95994
COSMOS 2219             
1 22219U 92076A   26077.15103518 -.00000102  00000+0 -28667-4 0  9993
2 22219  71.0641   0.3816 0018487 195.2338 164.8231 14.14093504719579
SL-16 R/B               
1 22220U 92076B   26077.30888340  .00000214  00000+0  13028-3 0  9991
2 22220  71.0006 170.2191 0010594  80.4540 336.2949 14.16860107723052
COSMOS 2221             
1 22236U 92080A   26077.26450232  .00001879  00000+0  16397-3 0  9993
2 22236  82.5002 270.8651 0014778 158.7326 201.4514 14.96235250782070
SL-16 R/B               
1 22285U 92093B   26077.14925427  .00000157  00000+0  10487-3 0  9993
2 22285  71.0239 346.5088 0006286 285.1214  74.9214 14.15447733714358
COSMOS 2228             
1 22286U 92094A   26077.27515220  .00002338  00000+0  19933-3 0  9993
2 22286  82.5168 229.0893 0016609 273.4478  86.4845 14.97234590777349
SL-16 R/B               
1 22566U 93016B   26077.04914004 -.00000250  00000+0 -10360-3 0  9995
2 22566  71.0083 197.6246 0012272 303.2524  56.7422 14.15308161703354
COSMOS 2242             
1 22626U 93024A   26076.99358276  .00001841  00000+0  15919-3 0  9997
2 22626  82.5152 258.7714 0014921 278.4646  81.4885 14.96583127781636
